#dP2022 10 10  0  0  0.00000000      96 __u+U ITR00 FIT  IAC
## 2231  86400.00000000   900.00000000 59862 0.0000000000000
+  118   C06C07C08C09C10C11C12C13C14C16C19C20C21C22C23C24C25
+        C26C27C28C29C30C32C33C34C35C36C37C38C39C40C41C42C43
+        C44C45C46E01E02E03E04E05E07E08E09E10E11E12E13E14E15
+        E18E19E21E24E25E26E27E30E31E33E34E36G01G02G03G04G05
+        G06G07G08G09G10G11G12G13G14G15G16G17G18G19G20G21G22
+        G23G24G25G26G27G28G29G30G31G32J02J03J04R01R02R03R04
+        R05R07R08R09R11R12R13R14R15R17R18R19R20R21R22R24  0
++         0  0  0  0  0  0  0  0  0  0  0  0  0  0  0  0  0
++         0  0  0  0  0  0  0  0  0  0  0  0  0  0  0  0  0
++         0  0  0  0  0  0  0  0  0  0  0  0  0  0  0  0  0
++         0  0  0  0  0  0  0  0  0  0  0  0  0  0  0  0  0
++         0  0  0  0  0  0  0  0  0  0  0  0  0  0  0  0  0
++         0  0  0  0  0  0  0  0  0  0  0  0  0  0  0  0  0
++         0  0  0  0  0  0  0  0  0  0  0  0  0  0  0  0  0
%c M  cc GPS ccc cccc cccc cccc cccc ccccc ccccc ccccc ccccc
%c cc cc ccc ccc cccc cccc cccc cccc ccccc ccccc ccccc ccccc
%f  0.0000000  0.000000000  0.00000000000  0.000000000000000
%f  0.0000000  0.000000000  0.00000000000  0.000000000000000
%i    0    0    0    0      0      0      0      0         0
%i    0    0    0    0      0      0      0      0         0
/* INFORMATION & ANALYSIS CENTER (IAC)      ULTRA-RAPID DATA
/* S/V CLOCKS ARE ALIGNED TO GNSS TIME                      
/* G:C1WC2W R:C1PC2P E:C1XC5X C:C2IC6I J:C1CC2S             
/* PCV:IGS14_2218 OL/AL:FES2004  NONE     YN ORB:CoN CLK:CoN
*  2022 10 10  0 15  0.00000000
PC06 -18583.179890  29146.200126 -24301.444584    899.858255
PC07  -7453.687073  39586.023425 -12129.378424 999999.999999
PC08  -2473.472430  22150.619168  35809.057008    490.952926
PC09  -9606.574193  27872.396122 -29972.656953   -839.354655
PC10  -1368.316717  41481.118276  -5386.908566     85.869234
PC11  18202.117728 -18931.567536  -9423.876571   -360.615128
PC12  24849.260453  -9901.525452   8035.448920   -488.161078
PC13   6077.547134  26454.995265  32484.037141    102.709798
PC14   7482.195848 -23299.252238 -13450.602953    559.130329
PC16 -22931.336185  28485.298763 -21040.754946    130.755002
PC19  -1248.231728  27437.332678   4911.028892   -840.628940
PC20 -11683.339166  16879.521133  18895.144253    867.923014
PC21  15829.754414   4626.916670 -22502.411761   -570.128268
PC22  10385.898503  22616.314118 -12613.774157   -859.792329
PC23 -18186.407517 -17880.754085  11327.506680   -480.521597
PC24  19327.813444  -5997.652800  19221.027507   -537.546941
PC25   -790.576621 -17481.904396  21727.172769      7.435756
PC26  26273.951242   6766.984372   6601.472373    -19.250989
PC27 -23258.608892   2769.406268 -15192.121989     33.516068
PC28 -10891.525791 -11767.685456 -22833.807081     22.487296
PC29  -8217.213221  20508.060754  17041.708850     24.682491
PC30 -22430.469331  16606.063579    567.511478      0.421748
PC32 -15880.072737  -4639.770907  22479.346275   -766.250409
PC33   1149.761695 -27438.200170  -4995.254376   -872.262301
PC34  21937.357211 -17152.101825  -1700.019054     13.215715
PC35   9973.968108  12489.795068  22867.926894     34.647333
PC36   -238.380994  17303.293098 -21867.413426   -609.871125
PC37 -26077.099803  -8284.648029  -5399.822427   -457.755162
PC38 -11423.303203  20116.963370  35263.106370     29.989999
PC39 -25519.754375  29268.413211 -16658.422708     -0.604718
PC40 -12423.136670  36769.165573 -16215.644564     -5.735204
PC41 -10241.103351 -22948.182750  12175.114075   -157.698335
PC42  12186.446834 -15822.932430 -19461.867527   -445.298765
PC43   8946.649946 -20652.531810 -16494.721791     18.724142
PC44  23104.652742  -3360.025445  15257.181151     76.516062
PC45  18522.792403  17729.055829 -11041.598591     -7.874812
PC46 -17871.703704   7247.490812 -20150.761890     -5.272307
PE01  11721.199590 -12280.603973  24255.442764   -543.775219
PE02 -11567.491755  12469.877122 -24221.585076    329.778970
PE03 -17395.789244  22540.399542   8066.376324   -608.163119
PE04   5454.220704 -27277.321686  10115.829563  -1133.254121
PE05 -19382.627421   4432.876322  21923.910267   -136.052143
PE07  10072.276171  15949.043740 -22811.335724   -711.992338
PE08  -5383.391906  27253.519793 -10213.506283   -612.735314
PE09  -9870.868110 -16020.687376  22847.209896   -687.680032
PE10  -9211.251728 -14768.758285 -23946.253700   -482.573880
PE11 -19991.611251 -10885.702618 -18932.080723   1861.486846
PE12   2172.149829 -16190.591535 -24686.818803   -213.717893
PE13  19271.382220  11173.678538  19497.412980    430.672600
PE14 -20743.463121  12321.750313 -12133.205111     23.227822
PE15  -2423.719178  16123.337113  24709.081352    715.081519
PE18  16763.570113 -25458.284192  -1346.632829   -879.894582
PE19  18358.837205 -20728.929751 -10455.928614  -4308.478498
PE21  20748.616138   6279.973600  20162.773054   -762.521011
PE24 -18065.493414 -23199.481832  -3304.958764   -882.522332
PE25 -20806.346802  -6590.696236 -19980.784660   -589.786553
PE26  29529.318400   -755.460614   2020.705887  -1708.930961
PE27  18610.354459  22626.279599   4277.306359   -411.619056
PE30   4737.507063  25318.567890 -14599.371253   -903.566582
PE31  -5516.839666 -25496.404628  13998.757714   -505.382388
PE33  22565.676731 -11524.287821 -15302.632593   -454.546596
PE34 -22391.846792  11645.668721  15443.271704     -8.667414
PE36 -29453.739191    277.967665  -2904.056409   -443.578301
PG01 -12719.898865 -13319.368842 -19574.576293    270.102557
PG02   8935.602288  14146.302463  21243.683076   -642.984552
PG03 -11605.205186 -23882.520337  -2022.637281   -362.638879
PG04  -4438.564302 -17741.896128  19228.152071   -106.081891
PG05   3923.635485  23006.989120  12383.845002    -99.789668
PG06 -22869.103306   7073.992326  11646.203920    486.572643
PG07 -24580.932234  -6786.963706   8696.037448    300.255393
PG08   3163.006120 -23056.043940 -12497.255179    -88.148298
PG09 -13597.957625  -7052.163413  21620.838397   -285.332240
PG10  16558.222006    970.916261 -20664.524834     -6.836317
PG11 -13490.701910  12387.932402  19223.580047    -24.121045
PG12   9636.487240  24722.097743  -2369.762067   -290.395691
PG13 -12029.150713  22553.650270  -7022.887041    403.119239
PG14 -17422.094155  -3074.838607 -19834.912521    -96.601689
PG15    159.087523  23390.664862 -12742.655864    -22.208746
PG16   3650.892285 -20012.747015  16547.333359   -525.959067
PG17 -18837.973324   7183.476777 -16883.422120    667.227426
PG18  25085.736841   5682.636451   6908.692243     20.205785
PG19 -19567.731885  15241.335801  -9374.322387    221.708986
PG20  -6707.070932  15510.222274  20550.058467    479.667980
PG21  -3961.644321 -14621.909647 -21257.149787    158.269168
PG22  18272.107175 -18009.035062  -6087.829243    342.821307
PG23  18725.552128  11383.959844 -15108.699202     -0.884593
PG24   8948.069079  14708.941978 -20640.534893    105.771400
PG25  16981.004746  18965.864619   7759.078428    380.751481
PG26  10508.311754 -12260.428540  20956.489952    231.858374
PG27  12290.973100 -23222.065379  -2107.416543    200.528700
PG28 -13246.236729   6772.595711 -21504.878518    330.901280
PG29  11745.645752   8998.278665  22012.390523   -558.389370
PG30 -26525.869020   1129.385951  -2730.950384   -537.226503
PG31  22595.218886  -7565.783166  12053.369272   -196.244834
PG32  18745.452496 -10468.238457 -15357.277777   -258.467982
PJ02 -20409.176586  21727.022456 -25278.818725     -6.860983
PJ03 -30316.506126  28210.593281  12987.555640     -2.671682
PJ04 -27097.303992  27884.199625  22387.923109    111.723976
PR01  -1936.089589  25427.334058   -456.768825     16.007948
PR02   6350.834368  17246.879552 -17686.804746    -22.926995
PR03  11027.698429   -810.083189 -22946.300524     65.200728
PR04   9327.826233 -18031.000085 -15413.125002    160.605836
PR05   2707.347478 -25341.859863    597.434080    100.993048
PR07 -11121.082710   1768.009610  22922.865118     42.318963
PR08  -9327.793802  18172.167336  15350.560068    -67.559721
PR09 -19311.048845 -16135.283226   4432.904379     81.193585
PR11 -11382.649641   4874.732165 -22289.652481     25.008638
PR12   6039.223182  15682.593215 -19167.063153     21.898582
PR13  18474.005540  16552.410194  -5962.909076    -27.649098
PR14  20867.151558   7395.094452  12671.017454     24.220584
PR15  10663.441243  -5611.038925  22505.631058     93.297332
PR17  22841.589057  -4769.798173  10372.387005    567.747923
PR18  21466.251051 -12180.087411  -6344.264734     46.366268
PR19  10527.534700 -13220.877652 -19110.022320   -206.693758
PR20 -10587.841948  -6469.061781 -22282.881105    -79.908781
PR21 -23231.844146   5561.094971  -8893.005482   -340.308105
PR22 -21548.389009  11703.909034   7065.532888     14.151116
PR24  11556.453831   6234.827782  21891.912751    119.420890
EOF
